$$SOE
2460714.500000000, A.D. 2025-Feb-08 00:00:00.0000, 7.281016468131641E+09, -1.334981182597226E+09, -1.725320067439879E+09,
2460721.500000000, A.D. 2025-Feb-15 00:00:00.0000, 7.281984323681477E+09, -1.332847586433464E+09, -1.726144128688997E+09,
2460728.500000000, A.D. 2025-Feb-22 00:00:00.0000, 7.282951364165130E+09, -1.330713932415688E+09, -1.726967998139189E+09,
2460735.500000000, A.D. 2025-Mar-01 00:00:00.0000, 7.283917591993184E+09, -1.328580220430786E+09, -1.727791675925730E+09,
2460742.500000000, A.D. 2025-Mar-08 00:00:00.0000, 7.284883010658205E+09, -1.326446450480976E+09, -1.728615162334899E+09,
2460749.500000000, A.D. 2025-Mar-15 00:00:00.0000, 7.285847624712504E+09, -1.324312620848299E+09, -1.729438457648454E+09,
2460756.500000000, A.D. 2025-Mar-22 00:00:00.0000, 7.286811437537740E+09, -1.322178727672055E+09, -1.730261561899713E+09,
2460763.500000000, A.D. 2025-Mar-29 00:00:00.0000, 7.287774450483859E+09, -1.320044766780940E+09, -1.731084474938424E+09,
2460770.500000000, A.D. 2025-Apr-05 00:00:00.0000, 7.288736663702588E+09, -1.317910734641459E+09, -1.731907196578044E+09,
2460777.500000000, A.D. 2025-Apr-12 00:00:00.0000, 7.289698076749569E+09, -1.315776628318415E+09, -1.732729726640601E+09,
2460784.500000000, A.D. 2025-Apr-19 00:00:00.0000, 7.290658688767902E+09, -1.313642445328551E+09, -1.733552064954256E+09,
2460791.500000000, A.D. 2025-Apr-26 00:00:00.0000, 7.291618498524788E+09, -1.311508183590029E+09, -1.734374211345357E+09,
2460798.500000000, A.D. 2025-May-03 00:00:00.0000, 7.292577504414923E+09, -1.309373841448194E+09, -1.735196165634059E+09,
2460805.500000000, A.D. 2025-May-10 00:00:00.0000, 7.293535704459253E+09, -1.307239417768612E+09, -1.736017927635603E+09,
2460812.500000000, A.D. 2025-May-17 00:00:00.0000, 7.294493096335797E+09, -1.305104912138078E+09, -1.736839497174116E+09,
2460819.500000000, A.D. 2025-May-24 00:00:00.0000, 7.295449677616489E+09, -1.302970325227786E+09, -1.737660874129418E+09,
2460826.500000000, A.D. 2025-May-31 00:00:00.0000, 7.296405446627792E+09, -1.300835659007435E+09, -1.738482058529808E+09,
2460833.500000000, A.D. 2025-Jun-07 00:00:00.0000, 7.297360403534140E+09, -1.298700915605245E+09, -1.739303050555596E+09,
2460840.500000000, A.D. 2025-Jun-14 00:00:00.0000, 7.298314549279679E+09, -1.296566095480541E+09, -1.740123850291015E+09,
2460847.500000000, A.D. 2025-Jun-21 00:00:00.0000, 7.299267883605054E+09, -1.294431198180087E+09, -1.740944457603419E+09,
2460854.500000000, A.D. 2025-Jun-28 00:00:00.0000, 7.300220405267426E+09, -1.292296223913307E+09, -1.741764872292458E+09,
2460861.500000000, A.D. 2025-Jul-05 00:00:00.0000, 7.301172112947042E+09, -1.290161173789768E+09, -1.742585094193825E+09,
2460868.500000000, A.D. 2025-Jul-12 00:00:00.0000, 7.302123005649302E+09, -1.288026049524115E+09, -1.743405123194091E+09,
2460875.500000000, A.D. 2025-Jul-19 00:00:00.0000, 7.303073082791952E+09, -1.285890853183371E+09, -1.744224959220961E+09,
2460882.500000000, A.D. 2025-Jul-26 00:00:00.0000, 7.304022344187272E+09, -1.283755587033032E+09, -1.745044602232720E+09,
2460889.500000000, A.D. 2025-Aug-02 00:00:00.0000, 7.304970789984705E+09, -1.281620253460145E+09, -1.745864052211004E+09,
2460896.500000000, A.D. 2025-Aug-09 00:00:00.0000, 7.305918420597293E+09, -1.279484854987761E+09, -1.746683309160093E+09,
2460903.500000000, A.D. 2025-Aug-16 00:00:00.0000, 7.306865236688907E+09, -1.277349394443739E+09, -1.747502373124773E+09,
2460910.500000000, A.D. 2025-Aug-23 00:00:00.0000, 7.307811239514862E+09, -1.275213875267134E+09, -1.748321244252052E+09,
2460917.500000000, A.D. 2025-Aug-30 00:00:00.0000, 7.308756431944882E+09, -1.273078301237874E+09, -1.749139922868317E+09,
2460924.500000000, A.D. 2025-Sep-06 00:00:00.0000, 7.309700818750257E+09, -1.270942674629291E+09, -1.749958409359864E+09,
2460931.500000000, A.D. 2025-Sep-13 00:00:00.0000, 7.310644404484468E+09, -1.268806995266198E+09, -1.750776703906209E+09,
2460938.500000000, A.D. 2025-Sep-20 00:00:00.0000, 7.311587192230491E+09, -1.266671262132808E+09, -1.751594806500541E+09,
2460945.500000000, A.D. 2025-Sep-27 00:00:00.0000, 7.312529184273338E+09, -1.264535474418740E+09, -1.752412717099914E+09,
2460952.500000000, A.D. 2025-Oct-04 00:00:00.0000, 7.313470382681129E+09, -1.262399631463727E+09, -1.753230435675936E+09,
2460959.500000000, A.D. 2025-Oct-11 00:00:00.0000, 7.314410789421069E+09, -1.260263732543833E+09, -1.754047962208683E+09,
2460966.500000000, A.D. 2025-Oct-18 00:00:00.0000, 7.315350406293959E+09, -1.258127776773339E+09, -1.754865296672208E+09,
2460973.500000000, A.D. 2025-Oct-25 00:00:00.0000, 7.316289234826802E+09, -1.255991763110948E+09, -1.755682439023589E+09,
2460980.500000000, A.D. 2025-Nov-01 00:00:00.0000, 7.317227276162902E+09, -1.253855690454433E+09, -1.756499389197971E+09,
2460987.500000000, A.D. 2025-Nov-08 00:00:00.0000, 7.318164530983947E+09, -1.251719557854689E+09, -1.757316147115492E+09,
2460994.500000000, A.D. 2025-Nov-15 00:00:00.0000, 7.319100999611904E+09, -1.249583364907259E+09, -1.758132712718638E+09,
2461001.500000000, A.D. 2025-Nov-22 00:00:00.0000, 7.320036682693374E+09, -1.247447112100798E+09, -1.758949086059177E+09,
2461008.500000000, A.D. 2025-Nov-29 00:00:00.0000, 7.320971582313090E+09, -1.245310799987020E+09, -1.759765267328104E+09,
2461015.500000000, A.D. 2025-Dec-06 00:00:00.0000, 7.321905701259148E+09, -1.243174427307766E+09, -1.760581256630998E+09,
2461022.500000000, A.D. 2025-Dec-13 00:00:00.0000, 7.322839040873528E+09, -1.241037991449146E+09, -1.761397053824186E+09,
2461029.500000000, A.D. 2025-Dec-20 00:00:00.0000, 7.323771600981108E+09, -1.238901490199259E+09, -1.762212658648589E+09,
2461036.500000000, A.D. 2025-Dec-27 00:00:00.0000, 7.324703380823317E+09, -1.236764922217747E+09, -1.763028070851078E+09,
2461043.500000000, A.D. 2026-Jan-03 00:00:00.0000, 7.325634379537223E+09, -1.234628286832198E+09, -1.763843290209828E+09,
2461050.500000000, A.D. 2026-Jan-10 00:00:00.0000, 7.326564596289800E+09, -1.232491583839617E+09, -1.764658316529167E+09,
2461057.500000000, A.D. 2026-Jan-17 00:00:00.0000, 7.327494030299970E+09, -1.230354813403708E+09, -1.765473149632689E+09,
2461064.500000000, A.D. 2026-Jan-24 00:00:00.0000, 7.328422680826312E+09, -1.228217976024435E+09, -1.766287789359821E+09,
2461071.500000000, A.D. 2026-Jan-31 00:00:00.0000, 7.329350547143950E+09, -1.226081072586311E+09, -1.767102235568501E+09,
2461078.500000000, A.D. 2026-Feb-07 00:00:00.0000, 7.330277628572082E+09, -1.223944104541871E+09, -1.767916488154182E+09,
2461085.500000000, A.D. 2026-Feb-14 00:00:00.0000, 7.331203924805237E+09, -1.221807074244706E+09, -1.768730547109508E+09,
2461092.500000000, A.D. 2026-Feb-21 00:00:00.0000, 7.332129436935833E+09, -1.219669984854263E+09, -1.769544412612960E+09,
2461099.500000000, A.D. 2026-Feb-28 00:00:00.0000, 7.333054168083162E+09, -1.217532838658299E+09, -1.770358084952606E+09,
2461106.500000000, A.D. 2026-Mar-07 00:00:00.0000, 7.333978121570284E+09, -1.215395635762630E+09, -1.771171564255422E+09,
2461113.500000000, A.D. 2026-Mar-14 00:00:00.0000, 7.334901299424517E+09, -1.213258375480730E+09, -1.771984850467328E+09,
2461120.500000000, A.D. 2026-Mar-21 00:00:00.0000, 7.335823702984425E+09, -1.211121057525156E+09, -1.772797943510523E+09,
2461127.500000000, A.D. 2026-Mar-28 00:00:00.0000, 7.336745333603890E+09, -1.208983681972086E+09, -1.773610843349642E+09,
2461134.500000000, A.D. 2026-Apr-04 00:00:00.0000, 7.337666192849566E+09, -1.206846248964626E+09, -1.774423549990107E+09,
2461141.500000000, A.D. 2026-Apr-11 00:00:00.0000, 7.338586282465612E+09, -1.204708758514853E+09, -1.775236063463037E+09,
2461148.500000000, A.D. 2026-Apr-18 00:00:00.0000, 7.339505604265144E+09, -1.202571210411297E+09, -1.776048383811679E+09,
2461155.500000000, A.D. 2026-Apr-25 00:00:00.0000, 7.340424159994435E+09, -1.200433604217173E+09, -1.776860511082138E+09,
2461162.500000000, A.D. 2026-May-02 00:00:00.0000, 7.341341951200912E+09, -1.198295939388997E+09, -1.777672445323480E+09,
2461169.500000000, A.D. 2026-May-09 00:00:00.0000, 7.342258979229923E+09, -1.196158215581779E+09, -1.778484186613852E+09,
2461176.500000000, A.D. 2026-May-16 00:00:00.0000, 7.343175245728600E+09, -1.194020433002475E+09, -1.779295735135878E+09,
2461183.500000000, A.D. 2026-May-23 00:00:00.0000, 7.344090753708943E+09, -1.191882591789237E+09, -1.780107091222443E+09,
2461190.500000000, A.D. 2026-May-30 00:00:00.0000, 7.345005507091886E+09, -1.189744690096910E+09, -1.780918255156120E+09,
2461197.500000000, A.D. 2026-Jun-06 00:00:00.0000, 7.345919508415095E+09, -1.187606724162298E+09, -1.781729226960732E+09,
2461204.500000000, A.D. 2026-Jun-13 00:00:00.0000, 7.346832758370617E+09, -1.185468690150227E+09, -1.782540006505155E+09,
2461211.500000000, A.D. 2026-Jun-20 00:00:00.0000, 7.347745256671241E+09, -1.183330584854282E+09, -1.783350593634480E+09,
2461218.500000000, A.D. 2026-Jun-27 00:00:00.0000, 7.348657002547308E+09, -1.181192405592025E+09, -1.784160988200792E+09,
2461225.500000000, A.D. 2026-Jul-04 00:00:00.0000, 7.349567994873812E+09, -1.179054150069566E+09, -1.784971190057140E+09,
2461232.500000000, A.D. 2026-Jul-11 00:00:00.0000, 7.350478232181700E+09, -1.176915816347338E+09, -1.785781199049073E+09,
2461239.500000000, A.D. 2026-Jul-18 00:00:00.0000, 7.351387712646120E+09, -1.174777402881289E+09, -1.786591015010373E+09,
2461246.500000000, A.D. 2026-Jul-25 00:00:00.0000, 7.352296434075981E+09, -1.172638908636687E+09, -1.787400637765265E+09,
2461253.500000000, A.D. 2026-Aug-01 00:00:00.0000, 7.353204393952949E+09, -1.170500333322615E+09, -1.788210067145620E+09,
2461260.500000000, A.D. 2026-Aug-08 00:00:00.0000, 7.354111589734691E+09, -1.168361677782928E+09, -1.789019303045948E+09,
2461267.500000000, A.D. 2026-Aug-15 00:00:00.0000, 7.355018019837324E+09, -1.166222944093174E+09, -1.789828345517538E+09,
2461274.500000000, A.D. 2026-Aug-22 00:00:00.0000, 7.355923684535955E+09, -1.164084134142041E+09, -1.790637194732183E+09,
$$EOE